[{"OBJECT_NAME":"STARLINK-2391","OBJECT_ID":"2021-018Z","EPOCH":"2026-03-18T01:55:10.576992","MEAN_MOTION":15.30183473,"ECCENTRICITY":9.367e-5,"INCLINATION":53.1599,"RA_OF_ASC_NODE":216.6368,"ARG_OF_PERICENTER":102.2019,"MEAN_ANOMALY":257.9087,"EPHEMERIS_TYPE":0,"CLASSIFICATION_TYPE":"U","NORAD_CAT_ID":47810,"ELEMENT_SET_NO":999,"REV_AT_EPOCH":27788,"BSTAR":8.6056658e-5,"MEAN_MOTION_DOT":2.189e-5,"MEAN_MOTION_DDOT":0},{"OBJECT_NAME":"STARLINK-2395","OBJECT_ID":"2021-018AD","EPOCH":"2026-03-18T02:01:59.031264","MEAN_MOTION":15.30183731,"ECCENTRICITY":0.00014076,"INCLINATION":53.1608,"RA_OF_ASC_NODE":203.8538,"ARG_OF_PERICENTER":89.6271,"MEAN_ANOMALY":270.4892,"EPHEMERIS_TYPE":0,"CLASSIFICATION_TYPE":"U","NORAD_CAT_ID":47814,"ELEMENT_SET_NO":999,"REV_AT_EPOCH":27807,"BSTAR":0.00017124011,"MEAN_MOTION_DOT":4.713e-5,"MEAN_MOTION_DDOT":0},{"OBJECT_NAME":"STARLINK-2396","OBJECT_ID":"2021-018AE","EPOCH":"2026-03-18T14:23:43.905408","MEAN_MOTION":15.30192213,"ECCENTRICITY":0.00013312,"INCLINATION":53.161,"RA_OF_ASC_NODE":201.3029,"ARG_OF_PERICENTER":109.5154,"MEAN_ANOMALY":250.599,"EPHEMERIS_TYPE":0,"CLASSIFICATION_TYPE":"U","NORAD_CAT_ID":47815,"ELEMENT_SET_NO":999,"REV_AT_EPOCH":27808,"BSTAR":-6.6241576e-5,"MEAN_MOTION_DOT":-2.32e-5,"MEAN_MOTION_DDOT":0},{"OBJECT_NAME":"STARLINK-2399","OBJECT_ID":"2021-018AF","EPOCH":"2026-03-17T18:06:36.561312","MEAN_MOTION":15.06385305,"ECCENTRICITY":0.00010102,"INCLINATION":53.056,"RA_OF_ASC_NODE":215.4133,"ARG_OF_PERICENTER":96.7997,"MEAN_ANOMALY":263.3107,"EPHEMERIS_TYPE":0,"CLASSIFICATION_TYPE":"U","NORAD_CAT_ID":47816,"ELEMENT_SET_NO":999,"REV_AT_EPOCH":27780,"BSTAR":0.00023974409,"MEAN_MOTION_DOT":3.29e-5,"MEAN_MOTION_DDOT":0},{"OBJECT_NAME":"STARLINK-2400","OBJECT_ID":"2021-018AG","EPOCH":"2026-03-18T15:03:16.486560","MEAN_MOTION":15.30191772,"ECCENTRICITY":2.96e-5,"INCLINATION":53.1507,"RA_OF_ASC_NODE":201.6091,"ARG_OF_PERICENTER":26.9654,"MEAN_ANOMALY":333.1362,"EPHEMERIS_TYPE":0,"CLASSIFICATION_TYPE":"U","NORAD_CAT_ID":47817,"ELEMENT_SET_NO":999,"REV_AT_EPOCH":27808,"BSTAR":0.0001364566,"MEAN_MOTION_DOT":3.684e-5,"MEAN_MOTION_DDOT":0},{"OBJECT_NAME":"STARLINK-2401","OBJECT_ID":"2021-018AH","EPOCH":"2026-03-17T18:18:34.678368","MEAN_MOTION":15.43287203,"ECCENTRICITY":0.00016959,"INCLINATION":53.052,"RA_OF_ASC_NODE":214.3422,"ARG_OF_PERICENTER":10.225,"MEAN_ANOMALY":349.8789,"EPHEMERIS_TYPE":0,"CLASSIFICATION_TYPE":"U","NORAD_CAT_ID":47818,"ELEMENT_SET_NO":999,"REV_AT_EPOCH":27782,"BSTAR":0.0015323076,"MEAN_MOTION_DOT":0.00069471,"MEAN_MOTION_DDOT":0},{"OBJECT_NAME":"STARLINK-2402","OBJECT_ID":"2021-018AJ","EPOCH":"2026-03-18T15:00:13.571712","MEAN_MOTION":15.3019382,"ECCENTRICITY":6.683e-5,"INCLINATION":53.1594,"RA_OF_ASC_NODE":201.5603,"ARG_OF_PERICENTER":71.6573,"MEAN_ANOMALY":288.4501,"EPHEMERIS_TYPE":0,"CLASSIFICATION_TYPE":"U","NORAD_CAT_ID":47819,"ELEMENT_SET_NO":999,"REV_AT_EPOCH":27815,"BSTAR":-1.4801041e-5,"MEAN_MOTION_DOT":-7.97e-6,"MEAN_MOTION_DDOT":0},{"OBJECT_NAME":"STARLINK-2406","OBJECT_ID":"2021-018AL","EPOCH":"2026-03-18T14:49:33.086784","MEAN_MOTION":15.30181649,"ECCENTRICITY":0.00011041,"INCLINATION":53.1611,"RA_OF_ASC_NODE":201.2871,"ARG_OF_PERICENTER":81.6861,"MEAN_ANOMALY":278.4265,"EPHEMERIS_TYPE":0,"CLASSIFICATION_TYPE":"U","NORAD_CAT_ID":47821,"ELEMENT_SET_NO":999,"REV_AT_EPOCH":27809,"BSTAR":-3.1277609e-5,"MEAN_MOTION_DOT":-1.285e-5,"MEAN_MOTION_DDOT":0},{"OBJECT_NAME":"STARLINK-2407","OBJECT_ID":"2021-018AM","EPOCH":"2026-03-16T19:01:20.720352","MEAN_MOTION":15.30191139,"ECCENTRICITY":0.0001266,"INCLINATION":53.1592,"RA_OF_ASC_NODE":222.2967,"ARG_OF_PERICENTER":80.4876,"MEAN_ANOMALY":279.6268,"EPHEMERIS_TYPE":0,"CLASSIFICATION_TYPE":"U","NORAD_CAT_ID":47822,"ELEMENT_SET_NO":999,"REV_AT_EPOCH":27764,"BSTAR":3.0306781e-5,"MEAN_MOTION_DOT":5.38e-6,"MEAN_MOTION_DDOT":0},{"OBJECT_NAME":"STARLINK-2408","OBJECT_ID":"2021-018AN","EPOCH":"2026-03-18T14:57:51.612192","MEAN_MOTION":15.06398324,"ECCENTRICITY":0.00017077,"INCLINATION":53.0576,"RA_OF_ASC_NODE":211.5021,"ARG_OF_PERICENTER":88.8653,"MEAN_ANOMALY":271.2532,"EPHEMERIS_TYPE":0,"CLASSIFICATION_TYPE":"U","NORAD_CAT_ID":47823,"ELEMENT_SET_NO":999,"REV_AT_EPOCH":27794,"BSTAR":6.1645948e-5,"MEAN_MOTION_DOT":6.37e-6,"MEAN_MOTION_DDOT":0},{"OBJECT_NAME":"STARLINK-2409","OBJECT_ID":"2021-018AP","EPOCH":"2026-03-17T18:01:16.688640","MEAN_MOTION":15.06398319,"ECCENTRICITY":0.00010857,"INCLINATION":53.0555,"RA_OF_ASC_NODE":215.4297,"ARG_OF_PERICENTER":94.2394,"MEAN_ANOMALY":265.8719,"EPHEMERIS_TYPE":0,"CLASSIFICATION_TYPE":"U","NORAD_CAT_ID":47824,"ELEMENT_SET_NO":999,"REV_AT_EPOCH":27780,"BSTAR":0.00015915244,"MEAN_MOTION_DOT":2.09e-5,"MEAN_MOTION_DDOT":0},{"OBJECT_NAME":"STARLINK-2410","OBJECT_ID":"2021-018AQ","EPOCH":"2026-03-18T01:45:16.952832","MEAN_MOTION":15.30194119,"ECCENTRICITY":0.0001483,"INCLINATION":53.1598,"RA_OF_ASC_NODE":203.9028,"ARG_OF_PERICENTER":74.2713,"MEAN_ANOMALY":285.8452,"EPHEMERIS_TYPE":0,"CLASSIFICATION_TYPE":"U","NORAD_CAT_ID":47825,"ELEMENT_SET_NO":999,"REV_AT_EPOCH":27801,"BSTAR":0.00011069964,"MEAN_MOTION_DOT":2.92e-5,"MEAN_MOTION_DDOT":0},{"OBJECT_NAME":"STARLINK-2411","OBJECT_ID":"2021-018AR","EPOCH":"2026-03-18T14:39:43.221888","MEAN_MOTION":15.30204865,"ECCENTRICITY":0.00024309,"INCLINATION":53.1606,"RA_OF_ASC_NODE":203.5554,"ARG_OF_PERICENTER":90.3581,"MEAN_ANOMALY":269.7698,"EPHEMERIS_TYPE":0,"CLASSIFICATION_TYPE":"U","NORAD_CAT_ID":47826,"ELEMENT_SET_NO":999,"REV_AT_EPOCH":27806,"BSTAR":0.00027626327,"MEAN_MOTION_DOT":7.833e-5,"MEAN_MOTION_DDOT":0},{"OBJECT_NAME":"STARLINK-2413","OBJECT_ID":"2021-018AS","EPOCH":"2026-03-18T16:00:01.999584","MEAN_MOTION":15.27659859,"ECCENTRICITY":0.00014315,"INCLINATION":53.1474,"RA_OF_ASC_NODE":200.4953,"ARG_OF_PERICENTER":96.3499,"MEAN_ANOMALY":76.023,"EPHEMERIS_TYPE":0,"CLASSIFICATION_TYPE":"U","NORAD_CAT_ID":47827,"ELEMENT_SET_NO":999,"REV_AT_EPOCH":574,"BSTAR":0.038018478,"MEAN_MOTION_DOT":0.01128014,"MEAN_MOTION_DDOT":0},{"OBJECT_NAME":"STARLINK-2415","OBJECT_ID":"2021-018AT","EPOCH":"2026-03-17T18:36:41.488416","MEAN_MOTION":15.30198409,"ECCENTRICITY":9.445e-5,"INCLINATION":53.1592,"RA_OF_ASC_NODE":217.7266,"ARG_OF_PERICENTER":83.2473,"MEAN_ANOMALY":276.8636,"EPHEMERIS_TYPE":0,"CLASSIFICATION_TYPE":"U","NORAD_CAT_ID":47828,"ELEMENT_SET_NO":999,"REV_AT_EPOCH":27779,"BSTAR":0.00015524658,"MEAN_MOTION_DOT":4.241e-5,"MEAN_MOTION_DDOT":0},{"OBJECT_NAME":"STARLINK-2419","OBJECT_ID":"2021-018AV","EPOCH":"2026-03-17T10:23:45.484512","MEAN_MOTION":15.30188948,"ECCENTRICITY":0.00012044,"INCLINATION":53.1593,"RA_OF_ASC_NODE":219.6676,"ARG_OF_PERICENTER":106.4403,"MEAN_ANOMALY":253.673,"EPHEMERIS_TYPE":0,"CLASSIFICATION_TYPE":"U","NORAD_CAT_ID":47830,"ELEMENT_SET_NO":999,"REV_AT_EPOCH":27772,"BSTAR":0.00014276105,"MEAN_MOTION_DOT":3.87e-5,"MEAN_MOTION_DDOT":0}]
