STARLINK-2391           
1 47810U 21018Z   26077.07998353  .00002189  00000+0  86057-4 0  9997
2 47810  53.1599 216.6368 0000936 102.2019 257.9087 15.30183473277884
STARLINK-2395           
1 47814U 21018AD  26077.08471101  .00004713  00000+0  17124-3 0  9992
2 47814  53.1608 203.8538 0001407  89.6271 270.4892 15.30183731278071
STARLINK-2396           
1 47815U 21018AE  26077.59981372 -.00002320  00000+0 -66242-4 0  9995
2 47815  53.1610 201.3029 0001331 109.5154 250.5990 15.30192213278085
STARLINK-2399           
1 47816U 21018AF  26076.75458983  .00003290  00000+0  23974-3 0  9999
2 47816  53.0560 215.4133 0001010  96.7997 263.3107 15.06385305277807
STARLINK-2400           
1 47817U 21018AG  26077.62727415  .00003684  00000+0  13646-3 0  9998
2 47817  53.1507 201.6091 0000296  26.9654 333.1362 15.30191772278080
STARLINK-2401           
1 47818U 21018AH  26076.76290137  .00069471  00000+0  15323-2 0  9998
2 47818  53.0520 214.3422 0001695  10.2250 349.8789 15.43287203277823
STARLINK-2402           
1 47819U 21018AJ  26077.62515708 -.00000797  00000+0 -14801-4 0  9999
2 47819  53.1594 201.5603 0000668  71.6573 288.4501 15.30193820278157
STARLINK-2406           
1 47821U 21018AL  26077.61774406 -.00001285  00000+0 -31278-4 0  9993
2 47821  53.1611 201.2871 0001104  81.6861 278.4265 15.30181649278096
STARLINK-2407           
1 47822U 21018AM  26075.79260093  .00000538  00000+0  30307-4 0  9993
2 47822  53.1592 222.2967 0001266  80.4876 279.6268 15.30191139277647
STARLINK-2408           
1 47823U 21018AN  26077.62351403  .00000637  00000+0  61646-4 0  9994
2 47823  53.0576 211.5021 0001707  88.8653 271.2532 15.06398324277949
STARLINK-2409           
1 47824U 21018AP  26076.75088760  .00002090  00000+0  15915-3 0  9993
2 47824  53.0555 215.4297 0001085  94.2394 265.8719 15.06398319277802
STARLINK-2410           
1 47825U 21018AQ  26077.07311288  .00002920  00000+0  11070-3 0  9994
2 47825  53.1598 203.9028 0001483  74.2713 285.8452 15.30194119278019
STARLINK-2411           
1 47826U 21018AR  26077.61091692  .00007833  00000+0  27626-3 0  9991
2 47826  53.1606 203.5554 0002430  90.3581 269.7698 15.30204865278063
STARLINK-2413           
1 47827U 21018AS  26077.66668981  .01128014  00000+0  38018-1 0  9999
2 47827  53.1474 200.4953 0001431  96.3499  76.0230 15.27659859  5747
STARLINK-2415           
1 47828U 21018AT  26076.77548019  .00004241  00000+0  15525-3 0  9994
2 47828  53.1592 217.7266 0000944  83.2473 276.8636 15.30198409277791
STARLINK-2419           
1 47830U 21018AV  26076.43316533  .00003870  00000+0  14276-3 0  9993
2 47830  53.1593 219.6676 0001204 106.4403 253.6730 15.30188948277720
